{
  "type": "FeatureCollection",
  "features": [
    {
      "type": "Feature",
      "properties": {
        "norad_id": 42917,
        "name": "QZS-3 (QZSS/PRN 199)",
        "group": "gnss",
        "lat": -0.0006533448938333762,
        "lon": -29.209063910255022,
        "alt_km": 35783.00889538084,
        "timestamp": "2025-12-21T07:34:34.764001+00:00",
        "meta_object_name": "QZS-3 (QZSS/PRN 199)",
        "meta_object_id": "2017-048A",
        "meta_epoch": "2025-12-20T22:23:36.871296",
        "meta_mean_motion": 1.0026537,
        "meta_eccentricity": 0.00018473,
        "meta_inclination": 0.0274,
        "meta_ra_of_asc_node": 164.8962,
        "meta_arg_of_pericenter": 115.0287,
        "meta_mean_anomaly": 272.7487,
        "meta_ephemeris_type": 0,
        "meta_classification_type": "U",
        "meta_norad_cat_id": 42917,
        "meta_element_set_no": 999,
        "meta_rev_at_epoch": 3047,
        "meta_bstar": 0,
        "meta_mean_motion_dot": 0,
        "meta_mean_motion_ddot": 0,
        "tle_line1": "1 42917U 17048A   25354.93306564  .00000000  00000+0  00000+0 0  9996",
        "tle_line2": "2 42917   0.0274 164.8962 0001847 115.0287 272.7487  1.00265370 30473"
      },
      "geometry": {
        "type": "Point",
        "coordinates": [
          -29.209063910255022,
          -0.0006533448938333762
        ]
      }
    },
    {
      "type": "Feature",
      "properties": {
        "norad_id": 42939,
        "name": "COSMOS 2522 (752)",
        "group": "gnss",
        "lat": 28.51854072112454,
        "lon": -146.724303485199,
        "alt_km": 19142.420623646027,
        "timestamp": "2025-12-21T07:34:34.764012+00:00",
        "meta_object_name": "COSMOS 2522 (752)",
        "meta_object_id": "2017-055A",
        "meta_epoch": "2025-12-20T08:02:51.947808",
        "meta_mean_motion": 2.13102062,
        "meta_eccentricity": 0.00063083,
        "meta_inclination": 64.0763,
        "meta_ra_of_asc_node": 197.9702,
        "meta_arg_of_pericenter": 223.818,
        "meta_mean_anomaly": 136.2073,
        "meta_ephemeris_type": 0,
        "meta_classification_type": "U",
        "meta_norad_cat_id": 42939,
        "meta_element_set_no": 999,
        "meta_rev_at_epoch": 6416,
        "meta_bstar": 0,
        "meta_mean_motion_dot": 1.01e-06,
        "meta_mean_motion_ddot": 0,
        "tle_line1": "1 42939U 17055A   25354.33532347  .00000101  00000+0  00000+0 0  9994",
        "tle_line2": "2 42939  64.0763 197.9702 0006308 223.8180 136.2073  2.13102062 64167"
      },
      "geometry": {
        "type": "Point",
        "coordinates": [
          -146.724303485199,
          28.51854072112454
        ]
      }
    },
    {
      "type": "Feature",
      "properties": {
        "norad_id": 42965,
        "name": "QZS-4 (QZSS/PRN 195)",
        "group": "gnss",
        "lat": 1.519098373355945,
        "lon": -12.459691700074867,
        "alt_km": 35580.49987257473,
        "timestamp": "2025-12-21T07:34:34.764022+00:00",
        "meta_object_name": "QZS-4 (QZSS/PRN 195)",
        "meta_object_id": "2017-062A",
        "meta_epoch": "2025-12-20T12:23:32.377344",
        "meta_mean_motion": 1.00250818,
        "meta_eccentricity": 0.07514763,
        "meta_inclination": 40.2219,
        "meta_ra_of_asc_node": 345.7724,
        "meta_arg_of_pericenter": 271.7049,
        "meta_mean_anomaly": 153.5074,
        "meta_ephemeris_type": 0,
        "meta_classification_type": "U",
        "meta_norad_cat_id": 42965,
        "meta_element_set_no": 999,
        "meta_rev_at_epoch": 3001,
        "meta_bstar": 0,
        "meta_mean_motion_dot": -3.25e-06,
        "meta_mean_motion_ddot": 0,
        "tle_line1": "1 42965U 17062A   25354.51634696 -.00000325  00000+0  00000+0 0  9990",
        "tle_line2": "2 42965  40.2219 345.7724 0751476 271.7049 153.5074  1.00250818 30012"
      },
      "geometry": {
        "type": "Point",
        "coordinates": [
          -12.459691700074867,
          1.519098373355945
        ]
      }
    },
    {
      "type": "Feature",
      "properties": {
        "norad_id": 43001,
        "name": "BEIDOU-3 M1 (C19)",
        "group": "gnss",
        "lat": -44.54350782654463,
        "lon": 28.425459696226003,
        "alt_km": 21506.54513265663,
        "timestamp": "2025-12-21T07:34:34.764033+00:00",
        "meta_object_name": "BEIDOU-3 M1 (C19)",
        "meta_object_id": "2017-069A",
        "meta_epoch": "2025-12-19T06:04:23.941632",
        "meta_mean_motion": 1.86231412,
        "meta_eccentricity": 0.0009566,
        "meta_inclination": 56.5322,
        "meta_ra_of_asc_node": 69.0186,
        "meta_arg_of_pericenter": 302.1864,
        "meta_mean_anomaly": 57.7554,
        "meta_ephemeris_type": 0,
        "meta_classification_type": "U",
        "meta_norad_cat_id": 43001,
        "meta_element_set_no": 999,
        "meta_rev_at_epoch": 5525,
        "meta_bstar": 0,
        "meta_mean_motion_dot": -5.5e-07,
        "meta_mean_motion_ddot": 0,
        "tle_line1": "1 43001U 17069A   25353.25305488 -.00000055  00000+0  00000+0 0  9993",
        "tle_line2": "2 43001  56.5322  69.0186 0009566 302.1864  57.7554  1.86231412 55251"
      },
      "geometry": {
        "type": "Point",
        "coordinates": [
          28.425459696226003,
          -44.54350782654463
        ]
      }
    },
    {
      "type": "Feature",
      "properties": {
        "norad_id": 43002,
        "name": "BEIDOU-3 M2 (C20)",
        "group": "gnss",
        "lat": -13.158955811112257,
        "lon": 60.12204622023232,
        "alt_km": 21512.385342996244,
        "timestamp": "2025-12-21T07:34:34.764045+00:00",
        "meta_object_name": "BEIDOU-3 M2 (C20)",
        "meta_object_id": "2017-069B",
        "meta_epoch": "2025-12-19T04:35:39.539904",
        "meta_mean_motion": 1.86231009,
        "meta_eccentricity": 0.0006519,
        "meta_inclination": 56.532,
        "meta_ra_of_asc_node": 69.0565,
        "meta_arg_of_pericenter": 330.2695,
        "meta_mean_anomaly": 29.7276,
        "meta_ephemeris_type": 0,
        "meta_classification_type": "U",
        "meta_norad_cat_id": 43002,
        "meta_element_set_no": 999,
        "meta_rev_at_epoch": 5524,
        "meta_bstar": 0,
        "meta_mean_motion_dot": -5.5e-07,
        "meta_mean_motion_ddot": 0,
        "tle_line1": "1 43002U 17069B   25353.19142986 -.00000055  00000+0  00000+0 0  9999",
        "tle_line2": "2 43002  56.5320  69.0565 0006519 330.2695  29.7276  1.86231009 55241"
      },
      "geometry": {
        "type": "Point",
        "coordinates": [
          60.12204622023232,
          -13.158955811112257
        ]
      }
    },
    {
      "type": "Feature",
      "properties": {
        "norad_id": 43055,
        "name": "GSAT0215 (GALILEO 19)",
        "group": "gnss",
        "lat": 17.090618686301493,
        "lon": -121.20759064725726,
        "alt_km": 23217.1854821674,
        "timestamp": "2025-12-21T07:34:34.764055+00:00",
        "meta_object_name": "GSAT0215 (GALILEO 19)",
        "meta_object_id": "2017-079A",
        "meta_epoch": "2025-12-18T08:21:56.206080",
        "meta_mean_motion": 1.70474068,
        "meta_eccentricity": 0.00012335,
        "meta_inclination": 55.1282,
        "meta_ra_of_asc_node": 226.4832,
        "meta_arg_of_pericenter": 345.8587,
        "meta_mean_anomaly": 14.2435,
        "meta_ephemeris_type": 0,
        "meta_classification_type": "U",
        "meta_norad_cat_id": 43055,
        "meta_element_set_no": 999,
        "meta_rev_at_epoch": 4990,
        "meta_bstar": 0,
        "meta_mean_motion_dot": 6.2e-07,
        "meta_mean_motion_ddot": 0,
        "tle_line1": "1 43055U 17079A   25352.34856720  .00000062  00000+0  00000+0 0  9999",
        "tle_line2": "2 43055  55.1282 226.4832 0001233 345.8587  14.2435  1.70474068 49906"
      },
      "geometry": {
        "type": "Point",
        "coordinates": [
          -121.20759064725726,
          17.090618686301493
        ]
      }
    },
    {
      "type": "Feature",
      "properties": {
        "norad_id": 43056,
        "name": "GSAT0216 (GALILEO 20)",
        "group": "gnss",
        "lat": -18.07870030771753,
        "lon": 59.56933895133712,
        "alt_km": 23228.354375687813,
        "timestamp": "2025-12-21T07:34:34.764065+00:00",
        "meta_object_name": "GSAT0216 (GALILEO 20)",
        "meta_object_id": "2017-079B",
        "meta_epoch": "2025-12-19T19:30:44.926272",
        "meta_mean_motion": 1.70474153,
        "meta_eccentricity": 0.00023685,
        "meta_inclination": 55.1281,
        "meta_ra_of_asc_node": 226.4428,
        "meta_arg_of_pericenter": 323.7267,
        "meta_mean_anomaly": 36.3665,
        "meta_ephemeris_type": 0,
        "meta_classification_type": "U",
        "meta_norad_cat_id": 43056,
        "meta_element_set_no": 999,
        "meta_rev_at_epoch": 4994,
        "meta_bstar": 0,
        "meta_mean_motion_dot": 6.9e-07,
        "meta_mean_motion_ddot": 0,
        "tle_line1": "1 43056U 17079B   25353.81301998  .00000069  00000+0  00000+0 0  9992",
        "tle_line2": "2 43056  55.1281 226.4428 0002368 323.7267  36.3665  1.70474153 49946"
      },
      "geometry": {
        "type": "Point",
        "coordinates": [
          59.56933895133712,
          -18.07870030771753
        ]
      }
    }
  ]
}